FORMOSAT 7-3            
1 44343U 19036E   26164.48280329  .00004057  00000+0  22385-3 0  9990
2 44343  23.9977 204.0393 0000513 189.6992 170.3502 15.09778691382689
FORMOSAT 7-1            
1 44349U 19036L   26164.97975384  .00002680  00000+0  20432-3 0  9993
2 44349  23.9982  54.0160 0000954 127.9371 232.1216 14.96492773384175
FORMOSAT 7-4            
1 44350U 19036M   26164.53546306  .00002573  00000+0  19512-3 0  9993
2 44350  23.9975 119.1166 0001353 138.0136 222.0469 14.96484230383529
FORMOSAT 7-2            
1 44351U 19036N   26164.69116443  .00002418  00000+0  18177-3 0  9990
2 44351  23.9963 172.3848 0000938 128.3197 231.7388 14.96486211383069
FORMOSAT 7-6            
1 44353U 19036Q   26164.82431275  .00002785  00000+0  21331-3 0  9993
2 44353  24.0001 352.3014 0001384  64.0833 295.9811 14.96498287381315
FORMOSAT 7-5            
1 44358U 19036V   26164.66822780  .00002767  00000+0  21175-3 0  9991
2 44358  23.9989 292.1070 0000674 103.4426 256.6150 14.96505000381821
METEOR-M2 2             
1 44387U 19038A   26165.22408669  .00000446  00000+0  21280-3 0  9993
2 44387  98.9137 152.4654 0002162  52.4007 307.7367 14.24366550360874
GLOBAL-4                
1 44499U 19054E   26164.94868954  .00051365  00000+0  52843-3 0  9995
2 44499  45.0062 255.0853 0006284 317.6116  42.4295 15.64125803379855
ZY-1 02D                
1 44528U 19059A   26165.21144551  .00000131  00000+0  60231-4 0  9990
2 44528  98.3196 226.8013 0002404 111.7354 248.4088 14.35458900353919
TAURUS-1 (JINNIUZUO 1)  
1 44530U 19059C   26165.18406308  .00004713  00000+0  75807-3 0  9994
2 44530  98.6403 329.8259 0007582 326.9757  33.0974 14.72066455358201
ZHUHAI-1 03B            
1 44536U 19060C   26165.22132640  .00029495  00000+0  45729-3 0  9996
2 44536  97.5518 322.8268 0007646 330.1475  29.9341 15.53940560375861
ZHUHAI-1 03D            
1 44538U 19060E   26165.18887091  .00029329  00000+0  53091-3 0  9997
2 44538  97.5383 314.9402 0006709 313.2621  46.8070 15.49597575375618
ZHUHAI-1 03E            
1 44539U 19060F   26165.19164089  .00016683  00000+0  40638-3 0  9996
2 44539  97.5603 315.0350 0006170  43.3879 316.7851 15.40979684375304
GAOFEN-7                
1 44703U 19072A   26165.17363316  .00004448  00000+0  19938-3 0  9999
2 44703  97.2433 226.7541 0017625  50.7549 309.5248 15.21581759367186
JILIN-1 GAOFEN 2A       
1 44777U 19075A   26165.20976368  .00013250  00000+0  34218-3 0  9993
2 44777  97.4974 248.9298 0007557  96.2559 263.9547 15.39238002364421
NINGXIA-1 1             
1 44779U 19076A   26165.18875019 -.00000089  00000+0  26787-4 0  9994
2 44779  45.0037 193.2517 0010449 148.8355 211.3100 14.02037872337434
NINGXIA-1 5             
1 44783U 19076E   26165.20214591 -.00000133  00000+0 -17847-5 0  9993
2 44783  45.0038 192.5341 0009908 137.8208 222.3390 14.02085271337350
KL-ALPHA A              
1 44785U 19077A   26165.16870179  .00000085  00000+0  10429-3 0  9992
2 44785  88.9260 222.8945 0013146 113.3193 246.9345 13.56042851325324
CARTOSAT-3              
1 44804U 19081A   26165.19349449  .00004547  00000+0  21843-3 0  9992
2 44804  97.4312 227.1079 0012931 158.4553 201.7229 15.19262709363011
JILIN-1 GAOFEN 2B       
1 44836U 19086A   26165.18615101  .00005564  00000+0  25590-3 0  9995
2 44836  97.4888 237.1955 0013107 335.7050  24.3566 15.20682208360030
TIANQIN 1 (CAS-6)       
1 44879U 19093A   26165.21203189  .00001868  00000+0  17406-3 0  9993
2 44879  97.7814 249.0734 0012387  66.6565 293.5957 14.95423186351602
ETRSS-1                 
1 44880U 19093B   26165.21970832  .00003209  00000+0  29199-3 0  9994
2 44880  97.7827 249.5373 0012363  66.4635 293.7884 14.95852481351618
TIANYAN 01              
1 44881U 19093C   26165.15030662  .00001003  00000+0  11919-3 0  9997
2 44881  97.7536 237.4560 0015044  96.1580 264.1350 14.86514601350964
TIANYAN 02              
1 44882U 19093D   26165.19451112  .00006403  00000+0  45224-3 0  9994
2 44882  97.7946 259.9553 0014358  39.5067 320.7202 15.05197630352169
CBERS 4A                
1 44883U 19093E   26165.18570619  .00000722  00000+0  98251-4 0  9995
2 44883  98.0127 232.6227 0002139 358.7866   1.3341 14.81789817350631
WEILAI 1R               
1 44884U 19093F   26165.18735640  .00005513  00000+0  43948-3 0  9998
2 44884  97.7857 255.0684 0017937  45.5184 314.7502 15.00623557351978
FLORIPASAT-1            
1 44885U 19093G   26165.23129447  .00005937  00000+0  43515-3 0  9997
2 44885  97.7916 259.4409 0013009  81.0369 279.2328 15.03847757352205
SHUNTIAN                
1 44886U 19093H   26165.19649056  .00003874  00000+0  35763-3 0  9990
2 44886  97.8016 253.3715 0013330  77.9523 282.3190 14.95148678351739
