OBJECT_NAME,OBJECT_ID,EPOCH,MEAN_MOTION,ECCENTRICITY,INCLINATION,RA_OF_ASC_NODE,ARG_OF_PERICENTER,MEAN_ANOMALY,EPHEMERIS_TYPE,CLASSIFICATION_TYPE,NORAD_CAT_ID,ELEMENT_SET_NO,REV_AT_EPOCH,BSTAR,MEAN_MOTION_DOT,MEAN_MOTION_DDOT
FORMOSAT 7-3,2019-036E,2026-06-13T11:35:14.204256,15.09778691,.00005134,23.9977,204.0393,189.6992,170.3502,0,U,44343,999,38268,.22384698E-3,.4057E-4,0
FORMOSAT 7-1,2019-036L,2026-06-13T23:30:50.731776,14.96492773,.0000954,23.9982,54.0160,127.9371,232.1216,0,U,44349,999,38417,.20432E-3,.268E-4,0
FORMOSAT 7-4,2019-036M,2026-06-13T12:51:04.008384,14.96484230,.00013533,23.9975,119.1166,138.0136,222.0469,0,U,44350,999,38352,.1951164E-3,.2573E-4,0
FORMOSAT 7-2,2019-036N,2026-06-13T16:35:16.606752,14.96486211,.00009384,23.9963,172.3848,128.3197,231.7388,0,U,44351,999,38306,.18177139E-3,.2418E-4,0
FORMOSAT 7-6,2019-036Q,2026-06-13T19:47:00.621600,14.96498287,.00013847,24.0001,352.3014,64.0833,295.9811,0,U,44353,999,38131,.2133059E-3,.2785E-4,0
FORMOSAT 7-5,2019-036V,2026-06-13T16:02:14.881920,14.96505000,.00006745,23.9989,292.1070,103.4426,256.6150,0,U,44358,999,38182,.21175005E-3,.2767E-4,0
METEOR-M2 2,2019-038A,2026-06-14T05:22:41.090016,14.24366550,.0002162,98.9137,152.4654,52.4007,307.7367,0,U,44387,999,36087,.2128E-3,.446E-5,0
GLOBAL-4,2019-054E,2026-06-13T22:46:06.776256,15.64125803,.0006284,45.0062,255.0853,317.6116,42.4295,0,U,44499,999,37985,.52843E-3,.51365E-3,0
ZY-1 02D,2019-059A,2026-06-14T05:04:28.892064,14.35458900,.0002404,98.3196,226.8013,111.7354,248.4088,0,U,44528,999,35391,.60231E-4,.131E-5,0
TAURUS-1 (JINNIUZUO 1),2019-059C,2026-06-14T04:25:03.050112,14.72066455,.0007582,98.6403,329.8259,326.9757,33.0974,0,U,44530,999,35820,.75807E-3,.4713E-4,0
ZHUHAI-1 03B,2019-060C,2026-06-14T05:18:42.600960,15.53940560,.0007646,97.5518,322.8268,330.1475,29.9341,0,U,44536,999,37586,.45729E-3,.29495E-3,0
ZHUHAI-1 03D,2019-060E,2026-06-14T04:31:58.446624,15.49597575,.0006709,97.5383,314.9402,313.2621,46.8070,0,U,44538,999,37561,.53091E-3,.29329E-3,0
ZHUHAI-1 03E,2019-060F,2026-06-14T04:35:57.772896,15.40979684,.000617,97.5603,315.0350,43.3879,316.7851,0,U,44539,999,37530,.40638E-3,.16683E-3,0
GAOFEN-7,2019-072A,2026-06-14T04:10:01.905024,15.21581759,.0017625,97.2433,226.7541,50.7549,309.5248,0,U,44703,999,36718,.19938E-3,.4448E-4,0
JILIN-1 GAOFEN 2A,2019-075A,2026-06-14T05:02:03.581952,15.39238002,.0007557,97.4974,248.9298,96.2559,263.9547,0,U,44777,999,36442,.34218E-3,.1325E-3,0
NINGXIA-1 1,2019-076A,2026-06-14T04:31:48.016416,14.02037872,.0010449,45.0037,193.2517,148.8355,211.3100,0,U,44779,999,33743,.26787E-4,-.89E-6,0
NINGXIA-1 5,2019-076E,2026-06-14T04:51:05.406624,14.02085271,.0009908,45.0038,192.5341,137.8208,222.3390,0,U,44783,999,33735,-.17847E-5,-.133E-5,0
KL-ALPHA A,2019-077A,2026-06-14T04:02:55.834656,13.56042851,.0013146,88.9260,222.8945,113.3193,246.9345,0,U,44785,999,32532,.10429E-3,.85E-6,0
CARTOSAT-3,2019-081A,2026-06-14T04:38:37.923936,15.19262709,.0012931,97.4312,227.1079,158.4553,201.7229,0,U,44804,999,36301,.21843E-3,.4547E-4,0
JILIN-1 GAOFEN 2B,2019-086A,2026-06-14T04:28:03.447264,15.20682208,.0013107,97.4888,237.1955,335.7050,24.3566,0,U,44836,999,36003,.2559E-3,.5564E-4,0
TIANQIN 1 (CAS-6),2019-093A,2026-06-14T05:05:19.555296,14.95423186,.0012387,97.7814,249.0734,66.6565,293.5957,0,U,44879,999,35160,.17406E-3,.1868E-4,0
ETRSS-1,2019-093B,2026-06-14T05:16:22.798848,14.95852481,.0012363,97.7827,249.5373,66.4635,293.7884,0,U,44880,999,35161,.29199E-3,.3209E-4,0
TIANYAN 01,2019-093C,2026-06-14T03:36:26.491968,14.86514601,.0015044,97.7536,237.4560,96.1580,264.1350,0,U,44881,999,35096,.11919E-3,.1003E-4,0
TIANYAN 02,2019-093D,2026-06-14T04:40:05.760768,15.05197630,.0014358,97.7946,259.9553,39.5067,320.7202,0,U,44882,999,35216,.45224E-3,.6403E-4,0
CBERS 4A,2019-093E,2026-06-14T04:27:25.014816,14.81789817,.0002139,98.0127,232.6227,358.7866,1.3341,0,U,44883,999,35063,.98251E-4,.722E-5,0
WEILAI 1R,2019-093F,2026-06-14T04:29:47.592960,15.00623557,.0017937,97.7857,255.0684,45.5184,314.7502,0,U,44884,999,35197,.43948E-3,.5513E-4,0
FLORIPASAT-1,2019-093G,2026-06-14T05:33:03.842208,15.03847757,.0013009,97.7916,259.4409,81.0369,279.2328,0,U,44885,999,35220,.43515E-3,.5937E-4,0
SHUNTIAN,2019-093H,2026-06-14T04:42:56.784384,14.95148678,.001333,97.8016,253.3715,77.9523,282.3190,0,U,44886,999,35173,.35763E-3,.3874E-4,0
